{"type": "FeatureCollection", "features": [{"type": "Feature", "properties": {"type": "polygon", "_bounds": [{"lat": 43.60560882328528, "lng": 1.4483837536037083}, {"lat": 43.6096892035084, "lng": 1.454071357784015}], "_leaflet_id": 215386, "class_code": 20, "landcover": "Shrubland", "landcover_color": "#7A8A4A", "project_name": "V\u00e9g\u00e9talisation All\u00e9es JJ Ramblas 2", "project_id": "30e73f632d104743b9988f456270e1c1"}, "geometry": {"type": "Polygon", "coordinates": [[[1.4535903166344213, 43.6096892035084], [1.4483837536037083, 43.60618296386903], [1.4489496843679197, 43.60560882328528], [1.454071357784015, 43.60886904880629], [1.4535903166344213, 43.6096892035084]]]}}]}