{"type": "FeatureCollection", "features": [{"type": "Feature", "properties": {"type": "polygon", "_bounds": [{"lat": 42.69808213075193, "lng": 2.8874261321596877}, {"lat": 42.698756399732986, "lng": 2.888401869006807}], "_leaflet_id": 111408, "class_code": 20, "landcover": "Shrubland", "landcover_color": "#7A8A4A", "project_name": "V\u00e9g\u00e9talisation Place de la Catalogne", "project_id": "46afc5bb74ab41688893bc2e72a392db"}, "geometry": {"type": "Polygon", "coordinates": [[[2.8874261321596877, 42.698555302732906], [2.8876834693501245, 42.69808213075193], [2.888401869006807, 42.69827139997701], [2.8881820601566064, 42.698756399732986], [2.8874261321596877, 42.698555302732906]]]}}]}